{"generatedAt":"2026-04-14T07:56:45.725768Z","satellites":[{"name":"ONEWEB-0342","tle1":"1 49208U 21083Y   26103.80607008 -.00000889  00000+0 -22186-2 0  9995","tle2":"2 49208  87.9140 287.2887 0002016  90.5699 269.5665 13.20774357228283"},{"name":"ONEWEB-0343","tle1":"1 49209U 21083Z   26103.95746480  .00000008  00000+0 -11609-4 0  9992","tle2":"2 49209  87.9221 348.2285 0001852  64.7734 295.3590 13.18686400221571"},{"name":"ONEWEB-0344","tle1":"1 49210U 21083AA  26103.90213933 -.00000217  00000+0 -62878-3 0  9997","tle2":"2 49210  87.8978 333.0509 0001480  71.2448 288.8842 13.13469181222459"},{"name":"ONEWEB-0345","tle1":"1 49211U 21083AB  26103.89366383 -.00000269  00000+0 -77232-3 0  9991","tle2":"2 49211  87.8961 333.0228 0001550  72.8844 287.2455 13.13469507222461"},{"name":"ONEWEB-0346","tle1":"1 49212U 21083AC  26103.95415383  .00000078  00000+0  16446-3 0  9990","tle2":"2 49212  87.9218 348.2342 0001363 101.1946 258.9339 13.18684375221512"},{"name":"ONEWEB-0348","tle1":"1 49213U 21083AD  26103.56933180  .00000001  00000+0 -28720-4 0  9994","tle2":"2 49213  87.9141 287.3394 0001228  98.9305 261.1967 13.20773088228287"},{"name":"ONEWEB-0350","tle1":"1 49214U 21083AE  26103.90296881 -.00000538  00000+0 -15079-2 0  9990","tle2":"2 49214  87.8989 333.0212 0001403  73.1719 286.9564 13.13469650222498"},{"name":"ONEWEB-0351","tle1":"1 49215U 21083AF  26103.79014583 -.00000235  00000+0 -60968-3 0  9997","tle2":"2 49215  87.9138 287.2935 0002249  71.1141 289.0236 13.20771755228276"},{"name":"ONEWEB-0352","tle1":"1 49216U 21083AG  26103.88350650 -.00000196  00000+0 -57073-3 0  9995","tle2":"2 49216  87.8979 333.0396 0002039  73.7172 286.4182 13.13469897222581"},{"name":"ONEWEB-0354","tle1":"1 49217U 21083AH  26103.73978486 -.00000008  00000+0 -51582-4 0  9995","tle2":"2 49217  87.9143 287.3027 0001439  90.8904 269.2395 13.20772407228307"},{"name":"ONEWEB-0355","tle1":"1 49218U 21083AJ  26103.91243012  .00000059  00000+0  12645-3 0  9996","tle2":"2 49218  87.8977 333.0416 0001743  74.5374 285.5948 13.13469958222463"},{"name":"ONEWEB-0357","tle1":"1 49219U 21083AK  26103.73662740  .00000059  00000+0  11289-3 0  9993","tle2":"2 49219  87.9139 287.2978 0001855  87.5186 272.6160 13.20772750228304"},{"name":"ONEWEB-0332","tle1":"1 49279U 21090A   26103.82297400 -.00000959  00000+0 -26216-2 0  9990","tle2":"2 49279  87.8922 302.5567 0002058  89.6835 270.4531 13.14506609219123"},{"name":"ONEWEB-0347","tle1":"1 49280U 21090B   26103.80291965  .00000076  00000+0  15578-3 0  9998","tle2":"2 49280  87.9138 287.2934 0002019  95.9702 264.1661 13.20773467222541"},{"name":"ONEWEB-0349","tle1":"1 49281U 21090C   26103.75873434  .00000112  00000+0  24375-3 0  9996","tle2":"2 49281  87.9136 287.3024 0001754  91.8440 268.2895 13.20772865221320"},{"name":"ONEWEB-0353","tle1":"1 49282U 21090D   26103.81505436 -.00000159  00000+0 -46332-3 0  9998","tle2":"2 49282  87.8928 302.5525 0001998  90.1285 270.0073 13.14502001219124"}]}