[{"OBJECT_NAME":"ONEWEB-0342","OBJECT_ID":"2021-083Y","EPOCH":"2026-04-13T19:20:44.454912","MEAN_MOTION":13.20774357,"ECCENTRICITY":0.0002016,"INCLINATION":87.914,"RA_OF_ASC_NODE":287.2887,"ARG_OF_PERICENTER":90.5699,"MEAN_ANOMALY":269.5665,"EPHEMERIS_TYPE":0,"CLASSIFICATION_TYPE":"U","NORAD_CAT_ID":49208,"ELEMENT_SET_NO":999,"REV_AT_EPOCH":22828,"BSTAR":-0.0022186000000000003,"MEAN_MOTION_DOT":-8.89e-06,"MEAN_MOTION_DDOT":0.0},{"OBJECT_NAME":"ONEWEB-0343","OBJECT_ID":"2021-083Z","EPOCH":"2026-04-13T22:58:44.958720","MEAN_MOTION":13.186864,"ECCENTRICITY":0.0001852,"INCLINATION":87.9221,"RA_OF_ASC_NODE":348.2285,"ARG_OF_PERICENTER":64.7734,"MEAN_ANOMALY":295.359,"EPHEMERIS_TYPE":0,"CLASSIFICATION_TYPE":"U","NORAD_CAT_ID":49209,"ELEMENT_SET_NO":999,"REV_AT_EPOCH":22157,"BSTAR":-1.1609e-05,"MEAN_MOTION_DOT":8e-08,"MEAN_MOTION_DDOT":0.0},{"OBJECT_NAME":"ONEWEB-0344","OBJECT_ID":"2021-083AA","EPOCH":"2026-04-13T21:39:04.838112","MEAN_MOTION":13.13469181,"ECCENTRICITY":0.000148,"INCLINATION":87.8978,"RA_OF_ASC_NODE":333.0509,"ARG_OF_PERICENTER":71.2448,"MEAN_ANOMALY":288.8842,"EPHEMERIS_TYPE":0,"CLASSIFICATION_TYPE":"U","NORAD_CAT_ID":49210,"ELEMENT_SET_NO":999,"REV_AT_EPOCH":22245,"BSTAR":-0.00062878,"MEAN_MOTION_DOT":-2.17e-06,"MEAN_MOTION_DDOT":0.0},{"OBJECT_NAME":"ONEWEB-0345","OBJECT_ID":"2021-083AB","EPOCH":"2026-04-13T21:26:52.554912","MEAN_MOTION":13.13469507,"ECCENTRICITY":0.000155,"INCLINATION":87.8961,"RA_OF_ASC_NODE":333.0228,"ARG_OF_PERICENTER":72.8844,"MEAN_ANOMALY":287.2455,"EPHEMERIS_TYPE":0,"CLASSIFICATION_TYPE":"U","NORAD_CAT_ID":49211,"ELEMENT_SET_NO":999,"REV_AT_EPOCH":22246,"BSTAR":-0.0007723200000000001,"MEAN_MOTION_DOT":-2.69e-06,"MEAN_MOTION_DDOT":0.0},{"OBJECT_NAME":"ONEWEB-0346","OBJECT_ID":"2021-083AC","EPOCH":"2026-04-13T22:53:58.890912","MEAN_MOTION":13.18684375,"ECCENTRICITY":0.0001363,"INCLINATION":87.9218,"RA_OF_ASC_NODE":348.2342,"ARG_OF_PERICENTER":101.1946,"MEAN_ANOMALY":258.9339,"EPHEMERIS_TYPE":0,"CLASSIFICATION_TYPE":"U","NORAD_CAT_ID":49212,"ELEMENT_SET_NO":999,"REV_AT_EPOCH":22151,"BSTAR":0.00016446,"MEAN_MOTION_DOT":7.8e-07,"MEAN_MOTION_DDOT":0.0},{"OBJECT_NAME":"ONEWEB-0348","OBJECT_ID":"2021-083AD","EPOCH":"2026-04-13T13:39:50.267520","MEAN_MOTION":13.20773088,"ECCENTRICITY":0.0001228,"INCLINATION":87.9141,"RA_OF_ASC_NODE":287.3394,"ARG_OF_PERICENTER":98.9305,"MEAN_ANOMALY":261.1967,"EPHEMERIS_TYPE":0,"CLASSIFICATION_TYPE":"U","NORAD_CAT_ID":49213,"ELEMENT_SET_NO":999,"REV_AT_EPOCH":22828,"BSTAR":-2.8720000000000003e-05,"MEAN_MOTION_DOT":1e-08,"MEAN_MOTION_DDOT":0.0},{"OBJECT_NAME":"ONEWEB-0350","OBJECT_ID":"2021-083AE","EPOCH":"2026-04-13T21:40:16.505184","MEAN_MOTION":13.1346965,"ECCENTRICITY":0.0001403,"INCLINATION":87.8989,"RA_OF_ASC_NODE":333.0212,"ARG_OF_PERICENTER":73.1719,"MEAN_ANOMALY":286.9564,"EPHEMERIS_TYPE":0,"CLASSIFICATION_TYPE":"U","NORAD_CAT_ID":49214,"ELEMENT_SET_NO":999,"REV_AT_EPOCH":22249,"BSTAR":-0.0015079000000000002,"MEAN_MOTION_DOT":-5.38e-06,"MEAN_MOTION_DDOT":0.0},{"OBJECT_NAME":"ONEWEB-0351","OBJECT_ID":"2021-083AF","EPOCH":"2026-04-13T18:57:48.599712","MEAN_MOTION":13.20771755,"ECCENTRICITY":0.0002249,"INCLINATION":87.9138,"RA_OF_ASC_NODE":287.2935,"ARG_OF_PERICENTER":71.1141,"MEAN_ANOMALY":289.0236,"EPHEMERIS_TYPE":0,"CLASSIFICATION_TYPE":"U","NORAD_CAT_ID":49215,"ELEMENT_SET_NO":999,"REV_AT_EPOCH":22827,"BSTAR":-0.00060968,"MEAN_MOTION_DOT":-2.35e-06,"MEAN_MOTION_DDOT":0.0},{"OBJECT_NAME":"ONEWEB-0352","OBJECT_ID":"2021-083AG","EPOCH":"2026-04-13T21:12:14.961600","MEAN_MOTION":13.13469897,"ECCENTRICITY":0.0002039,"INCLINATION":87.8979,"RA_OF_ASC_NODE":333.0396,"ARG_OF_PERICENTER":73.7172,"MEAN_ANOMALY":286.4182,"EPHEMERIS_TYPE":0,"CLASSIFICATION_TYPE":"U","NORAD_CAT_ID":49216,"ELEMENT_SET_NO":999,"REV_AT_EPOCH":22258,"BSTAR":-0.00057073,"MEAN_MOTION_DOT":-1.96e-06,"MEAN_MOTION_DDOT":0.0},{"OBJECT_NAME":"ONEWEB-0354","OBJECT_ID":"2021-083AH","EPOCH":"2026-04-13T17:45:17.411904","MEAN_MOTION":13.20772407,"ECCENTRICITY":0.0001439,"INCLINATION":87.9143,"RA_OF_ASC_NODE":287.3027,"ARG_OF_PERICENTER":90.8904,"MEAN_ANOMALY":269.2395,"EPHEMERIS_TYPE":0,"CLASSIFICATION_TYPE":"U","NORAD_CAT_ID":49217,"ELEMENT_SET_NO":999,"REV_AT_EPOCH":22830,"BSTAR":-5.1581999999999995e-05,"MEAN_MOTION_DOT":-8e-08,"MEAN_MOTION_DDOT":0.0},{"OBJECT_NAME":"ONEWEB-0355","OBJECT_ID":"2021-083AJ","EPOCH":"2026-04-13T21:53:53.962368","MEAN_MOTION":13.13469958,"ECCENTRICITY":0.0001743,"INCLINATION":87.8977,"RA_OF_ASC_NODE":333.0416,"ARG_OF_PERICENTER":74.5374,"MEAN_ANOMALY":285.5948,"EPHEMERIS_TYPE":0,"CLASSIFICATION_TYPE":"U","NORAD_CAT_ID":49218,"ELEMENT_SET_NO":999,"REV_AT_EPOCH":22246,"BSTAR":0.00012645,"MEAN_MOTION_DOT":5.9e-07,"MEAN_MOTION_DDOT":0.0},{"OBJECT_NAME":"ONEWEB-0357","OBJECT_ID":"2021-083AK","EPOCH":"2026-04-13T17:40:44.607360","MEAN_MOTION":13.2077275,"ECCENTRICITY":0.0001855,"INCLINATION":87.9139,"RA_OF_ASC_NODE":287.2978,"ARG_OF_PERICENTER":87.5186,"MEAN_ANOMALY":272.616,"EPHEMERIS_TYPE":0,"CLASSIFICATION_TYPE":"U","NORAD_CAT_ID":49219,"ELEMENT_SET_NO":999,"REV_AT_EPOCH":22830,"BSTAR":0.00011289000000000001,"MEAN_MOTION_DOT":5.9e-07,"MEAN_MOTION_DDOT":0.0},{"OBJECT_NAME":"ONEWEB-0332","OBJECT_ID":"2021-090A","EPOCH":"2026-04-13T19:45:04.953600","MEAN_MOTION":13.14506609,"ECCENTRICITY":0.0002058,"INCLINATION":87.8922,"RA_OF_ASC_NODE":302.5567,"ARG_OF_PERICENTER":89.6835,"MEAN_ANOMALY":270.4531,"EPHEMERIS_TYPE":0,"CLASSIFICATION_TYPE":"U","NORAD_CAT_ID":49279,"ELEMENT_SET_NO":999,"REV_AT_EPOCH":21912,"BSTAR":-0.0026216,"MEAN_MOTION_DOT":-9.59e-06,"MEAN_MOTION_DDOT":0.0},{"OBJECT_NAME":"ONEWEB-0347","OBJECT_ID":"2021-090B","EPOCH":"2026-04-13T19:16:12.257760","MEAN_MOTION":13.20773467,"ECCENTRICITY":0.0002019,"INCLINATION":87.9138,"RA_OF_ASC_NODE":287.2934,"ARG_OF_PERICENTER":95.9702,"MEAN_ANOMALY":264.1661,"EPHEMERIS_TYPE":0,"CLASSIFICATION_TYPE":"U","NORAD_CAT_ID":49280,"ELEMENT_SET_NO":999,"REV_AT_EPOCH":22254,"BSTAR":0.00015578,"MEAN_MOTION_DOT":7.6e-07,"MEAN_MOTION_DDOT":0.0},{"OBJECT_NAME":"ONEWEB-0349","OBJECT_ID":"2021-090C","EPOCH":"2026-04-13T18:12:34.646976","MEAN_MOTION":13.20772865,"ECCENTRICITY":0.0001754,"INCLINATION":87.9136,"RA_OF_ASC_NODE":287.3024,"ARG_OF_PERICENTER":91.844,"MEAN_ANOMALY":268.2895,"EPHEMERIS_TYPE":0,"CLASSIFICATION_TYPE":"U","NORAD_CAT_ID":49281,"ELEMENT_SET_NO":999,"REV_AT_EPOCH":22132,"BSTAR":0.00024375,"MEAN_MOTION_DOT":1.12e-06,"MEAN_MOTION_DDOT":0.0},{"OBJECT_NAME":"ONEWEB-0353","OBJECT_ID":"2021-090D","EPOCH":"2026-04-13T19:33:40.696704","MEAN_MOTION":13.14502001,"ECCENTRICITY":0.0001998,"INCLINATION":87.8928,"RA_OF_ASC_NODE":302.5525,"ARG_OF_PERICENTER":90.1285,"MEAN_ANOMALY":270.0073,"EPHEMERIS_TYPE":0,"CLASSIFICATION_TYPE":"U","NORAD_CAT_ID":49282,"ELEMENT_SET_NO":999,"REV_AT_EPOCH":21912,"BSTAR":-0.00046332000000000003,"MEAN_MOTION_DOT":-1.59e-06,"MEAN_MOTION_DDOT":0.0}]